satname,norad_id,inclination_deg,eccentricity,mean_motion_rev_per_day,perigee_km,apogee_km,l1,l2
STARLINK-1008,44714,53.1517,0.0002302,15.50359987,414.1102676178052,417.23813829564733,1 44714U 19074B   26170.11618470  .00058756  00000+0  10181-2 0  9998,2 44714  53.1517  59.4908 0002302 142.8785 217.2384 15.50359987364519
STARLINK-1012,44718,53.156,0.0002078,15.50729949,413.18208481719284,416.00514366047173,1 44718U 19074F   26170.82103832  .00050872  00000+0  87195-3 0  9992,2 44718  53.1560  56.3812 0002078 156.5201 203.5904 15.50729949364612
STARLINK-1017,44723,53.0477,0.0004424,15.32324678,465.84937559494574,471.9076149051425,1 44723U 19074L   26170.42292474  .00041492  00000+0  13152-2 0  9994,2 44723  53.0477  59.0041 0004424  77.2031 282.9463 15.32324678364526
STARLINK-1020,44725,53.1575,0.0004284,15.56108657,396.0285175439294,401.83511010361417,1 44725U 19074N   26170.48133332  .00068786  00000+0  96574-3 0  9994,2 44725  53.1575  81.6187 0004284 118.7136 241.4307 15.56108657364217
STARLINK-1036,44741,53.0427,0.0002403,15.70427513,356.05566920845285,359.29290011186004,1 44741U 19074AE  26170.37757267  .00051997  00000+0  41864-3 0  9997,2 44741  53.0427  49.8455 0002403  40.9279 319.1918 15.70427513364648
STARLINK-1039,44744,53.0613,0.0004237,15.29393464,474.7195127164032,480.5290848409895,1 44744U 19074AH  26170.53972967  .00032472  00000+0  11312-2 0  9995,2 44744  53.0613 104.1020 0004237  82.6382 277.5098 15.29393464363901
STARLINK-1042,44747,53.043,0.000198,15.54730086,401.5946968444723,404.2800022868996,1 44747U 19074AL  26170.82646480  .00021552  00000+0  32514-3 0  9993,2 44747  53.0430 322.8675 0001980 123.7404 236.3795 15.54730086365935
STARLINK-1043,44748,53.0489,6.59e-05,15.6338019,377.45610822529943,378.346554077345,1 44748U 19074AM  26170.39909104  .00034723  00000+0  37418-3 0  9993,2 44748  53.0489  60.5858 0000659 111.5624 248.5460 15.63380190364503
STARLINK-1046,44751,53.0465,0.000657,15.5642214,393.56985566747335,402.4737283201521,1 44751U 19074AQ  26170.74444667  .00090963  00000+0  12560-2 0  9992,2 44751  53.0465  81.1267 0006570 102.5406 257.6339 15.56422140364241
STARLINK-1047,44752,53.0693,0.000333,15.34729768,459.4456022505856,464.00094919421645,1 44752U 19074AR  26169.89412571  .00006691  00000+0  20686-3 0  9990,2 44752  53.0693  32.4243 0003330 136.1057 224.0210 15.34729768364871
STARLINK-1048,44753,53.044,0.0005763,15.68478745,359.3673728742506,367.1374983377309,1 44753U 19074AS  26170.32093716  .00050974  00000+0  44461-3 0  9997,2 44753  53.0440  32.2964 0005763  94.0286 266.1389 15.68478745364886
STARLINK-1063,44768,53.1546,0.0002313,15.50342547,414.15373217475735,417.2965728065001,1 44768U 19074BH  26170.83843500  .00040711  00000+0  70990-3 0  9997,2 44768  53.1546  97.0663 0002313 111.6383 248.4873 15.50342547364069
STARLINK-1067,44771,53.0427,0.0001722,15.78750634,332.8236253943405,335.1352783003558,1 44771U 19074BL  26170.43186447  .00093818  00000+0  52163-3 0  9995,2 44771  53.0427  62.7136 0001722 184.4986 175.6020 15.78750634364474
STARLINK-1068,44772,53.0407,0.0001998,15.77099594,337.3211554648624,340.0051888136495,1 44772U 19074BM  26170.83201764  .00070547  00000+0  42437-3 0  9997,2 44772  53.0407  34.5401 0001998 204.0872 156.0054 15.77099594364899
STARLINK-1114,44927,53.0392,0.0005393,15.66179059,366.21074110270456,373.4891198058922,1 44927U 20001P   26170.86437194  .00036752  00000+0  35397-3 0  9999,2 44927  53.0392 192.3436 0005393  31.9398 328.1943 15.66179059356037
STARLINK-1123,44930,53.1418,0.0007938,15.59922562,382.51012646598247,393.25185662936383,1 44930U 20001S   26170.89107883  .00069490  00000+0  84463-3 0  9998,2 44930  53.1418 219.9326 0007938 352.8958   7.1942 15.59922562355667
STARLINK-1094,44941,53.1511,0.0007738,15.55553797,395.29794464851784,405.7886302613824,1 44941U 20001AD  26170.56007409  .00053317  00000+0  76643-3 0  9999,2 44941  53.1511 196.9140 0007738  14.3082 345.8148 15.55553797355966
STARLINK-1122,44949,53.1529,0.0007251,15.55837708,394.80398517850153,404.6332313816283,1 44949U 20001AM  26170.44189919  .00071544  00000+0  10132-2 0  9993,2 44949  53.1529 198.0865 0007251  11.9727 348.1456 15.55837708355931
STARLINK-1080,44961,53.0444,0.0003172,15.68709185,360.45406307470876,364.73038169338906,1 44961U 20001AZ  26170.21640008  .00045754  00000+0  39630-3 0  9992,2 44961  53.0444 155.7064 0003172  61.1753 298.9581 15.68709185356499
STARLINK-1090,44968,53.1479,0.0005958,15.51925031,407.0609095294085,415.1509714172762,1 44968U 20001BG  26170.84367025  .00058223  00000+0  95387-3 0  9999,2 44968  53.1479 184.1967 0005958  20.7427 339.3824 15.51925031356162
STARLINK-1132,45044,53.1505,0.0004124,15.57281584,392.73498546119845,398.32190472031016,1 45044U 20006A   26170.58616242  .00062916  00000+0  84690-3 0  9998,2 45044  53.1505 126.0296 0004124  68.6823 291.4630 15.57281584352739
STARLINK-1131,45047,53.1553,0.0005837,15.5376243,401.7927239345727,409.7122365137866,1 45047U 20006D   26170.24010277  .00066044  00000+0  10108-2 0  9998,2 45047  53.1553 160.8263 0005837  36.8449 323.2962 15.53762430352213
STARLINK-1134,45048,53.0236,0.0007654,15.60950714,379.7331789881255,390.0860507461639,1 45048U 20006E   26170.55707465  .00105781  00000+0  12275-2 0  9994,2 45048  53.0236 108.4124 0007654 113.1871 246.9948 15.60950714352950
STARLINK-1156,45054,53.1568,0.0005074,15.35932029,454.6847787237821,461.6222463358972,1 45054U 20006L   26170.19071591  .00037323  00000+0  10572-2 0  9999,2 45054  53.1568 168.1009 0005074  28.5326 331.5954 15.35932029352105
STARLINK-1166,45060,53.0437,0.0005753,15.61439045,379.6095028415448,387.38944176657697,1 45060U 20006S   26170.81278861  .00080246  00000+0  91867-3 0  9993,2 45060  53.0437 140.1466 0005753  50.6869 309.4653 15.61439045352531
STARLINK-1169,45061,53.1537,0.0006135,15.3940974,443.6658872972248,452.0413778033644,1 45061U 20006T   26170.26471519  .00045070  00000+0  11373-2 0  9997,2 45061  53.1537 166.0577 0006135   8.5486 351.5622 15.39409740352141
STARLINK-1171,45062,53.0389,0.0002983,15.76105457,339.48284994139067,343.4917778070485,1 45062U 20006U   26170.52360449  .00071808  00000+0  45111-3 0  9992,2 45062  53.0389 106.1849 0002983  57.8652 302.2657 15.76105457352984
STARLINK-1133,45064,53.1552,0.0005452,15.35920157,454.46157540791137,461.9159049950267,1 45064U 20006W   26170.22725023  .00041482  00000+0  11735-2 0  9993,2 45064  53.1552 144.7123 0005452  41.1804 318.9610 15.35920157352442
STARLINK-1167,45071,53.1557,0.0003977,15.38474693,447.9033353955956,453.3349280227567,1 45071U 20006AD  26170.21136201  .00038369  00000+0  10009-2 0  9997,2 45071  53.1557 143.6507 0003977  14.8102 345.3018 15.38474693352456
STARLINK-1168,45072,53.157,0.0004927,15.36230262,453.90091308130377,460.63652187530624,1 45072U 20006AE  26170.20545915  .00044657  00000+0  12496-2 0  9992,2 45072  53.1570 144.9949 0004927  36.6103 323.5237 15.36230262352434
STARLINK-1172,45074,53.1534,0.0005132,15.39436653,444.2710184284779,451.27713355687774,1 45074U 20006AG  26170.29147225  .00047957  00000+0  12082-2 0  9992,2 45074  53.1534 142.5262 0005132  20.0240 340.0966 15.39436653352478
STARLINK-1153,45080,53.1568,0.000561,15.38557427,446.54352945270057,454.2051191585715,1 45080U 20006AN  26170.32381589  .00048542  00000+0  12583-2 0  9993,2 45080  53.1568 143.0298 0005610   7.7832 352.3258 15.38557427352479
STARLINK-1151,45081,53.0466,0.0002016,15.90213039,300.3395487003809,303.0328534150476,1 45081U 20006AP  26170.91668980  .00137639  00000+0  43932-3 0  9991,2 45081  53.0466  91.6523 0002016 191.2063 323.2968 15.90213039  5990
STARLINK-1185,45087,53.1588,0.0005675,15.47296126,420.7791291457879,428.50028070587996,1 45087U 20006AV  26170.85313296  .00054156  00000+0  10454-2 0  9991,2 45087  53.1588 119.9244 0005675  57.1361 303.0193 15.47296126352846
STARLINK-1183,45088,53.1562,0.0005169,15.35856501,454.8438393655488,461.911428193951,1 45088U 20006AW  26170.57730369  .00011108  00000+0  32412-3 0  9994,2 45088  53.1562 127.8872 0005169  58.2781 301.8726 15.35856501352709
STARLINK-1152,45096,53.0319,0.0003927,15.5031864,413.1270192934753,418.4629734834389,1 45096U 20006BE  26170.45382451  .00065098  00000+0  11276-2 0  9996,2 45096  53.0319  82.0876 0003927 120.7928 239.3467 15.50318640353310
STARLINK-1184,45098,53.0523,0.0005276,15.14808887,517.9185442352937,525.1991032685173,1 45098U 20006BG  26170.28863180  .00022207  00000+0  11941-2 0  9996,2 45098  53.0523 144.9095 0005276  65.9403 294.2141 15.14808887352413
STARLINK-1193,45100,53.0464,0.0004462,15.69021776,358.6895900280251,364.70421780388006,1 45100U 20006BJ  26170.05067423  .00043848  00000+0  37517-3 0  9993,2 45100  53.0464  94.3232 0004462  27.3865 332.7386 15.69021776353102
STARLINK-1143,45179,53.0308,0.00087,15.94120313,284.96472222373995,296.56861460678283,1 45179U 20012B   26170.91668980  .00253763  35939-4  67407-3 0  9990,2 45179  53.0308 179.0403 0008700  31.5280 349.9135 15.94120313  6026
STARLINK-1202,45183,53.1553,0.0002393,15.35769959,456.99842106802134,460.2704998890076,1 45183U 20012F   26170.58911953  .00042924  00000+0  12199-2 0  9997,2 45183  53.1553 284.6046 0002393 300.3366  59.7400 15.35769959350577
STARLINK-1216,45185,53.1557,0.00024,15.36118191,455.9605979982871,459.24175232236394,1 45185U 20012H   26170.56572781  .00039621  00000+0  11148-2 0  9992,2 45185  53.1557 284.5437 0002400 293.8147  66.2605 15.36118191350519
STARLINK-1225,45187,53.1574,0.0002654,15.36139605,455.7234595332375,459.35183563617466,1 45187U 20012K   26170.56423498  .00042171  00000+0  11847-2 0  9994,2 45187  53.1574 285.0139 0002654 303.4209  56.6540 15.36139605350551
STARLINK-1230,45189,53.1545,0.0002621,15.35983165,456.21003038009167,459.79353432980224,1 45189U 20012M   26170.64157266  .00040853  00000+0  11540-2 0  9997,2 45189  53.1545 284.7330 0002621 299.4335  60.6406 15.35983165347793
